[{"OBJECT_NAME":"DIWATA-2B","OBJECT_ID":"2018-084H","EPOCH":"2026-03-09T23:44:16.821312","MEAN_MOTION":14.99967379,"ECCENTRICITY":0.00117782,"INCLINATION":98.1039,"RA_OF_ASC_NODE":261.0381,"ARG_OF_PERICENTER":125.8755,"MEAN_ANOMALY":234.3563,"EPHEMERIS_TYPE":0,"CLASSIFICATION_TYPE":"U","NORAD_CAT_ID":43678,"ELEMENT_SET_NO":999,"REV_AT_EPOCH":40134,"BSTAR":0.00041230334,"MEAN_MOTION_DOT":5.066e-5,"MEAN_MOTION_DDOT":0},{"OBJECT_NAME":"STARLINK-33790","OBJECT_ID":"2025-102H","EPOCH":"2026-03-09T12:16:56.197056","MEAN_MOTION":14.98323551,"ECCENTRICITY":0.00028476,"INCLINATION":70.0019,"RA_OF_ASC_NODE":114.9764,"ARG_OF_PERICENTER":259.5585,"MEAN_ANOMALY":100.5253,"EPHEMERIS_TYPE":0,"CLASSIFICATION_TYPE":"U","NORAD_CAT_ID":64029,"ELEMENT_SET_NO":999,"REV_AT_EPOCH":4597,"BSTAR":0.00030189181,"MEAN_MOTION_DOT":3.51e-5,"MEAN_MOTION_DDOT":0}]
